NORAD_CAT_ID,OBJECT_NAME,OBJECT_TYPE,EPOCH,MEAN_MOTION,ECCENTRICITY,INCLINATION,RA_OF_ASC_NODE,ARG_OF_PERICENTER,MEAN_ANOMALY,BSTAR,MEAN_MOTION_DOT,MEAN_MOTION_DDOT,TLE_LINE0,TLE_LINE1,TLE_LINE2,SEMIMAJOR_AXIS,PERIOD,APOGEE,PERIGEE,DECAYED
55946.0,STARLINK-5857,PAYLOAD,2023-03-22 18:00:00,15.95083906,0.0039564,69.9998,167.7461,162.4956,299.9347,-0.0023074,-0.0097508,0.00029769,0 STARLINK-5857,1 55946U 23037AJ  23081.75001157 -.00975080  29769-3 -23074-2 0  9999,2 55946  69.9998 167.7461 0039564 162.4956 299.9347 15.95083906  1306,6666.218,90.277,314.457,261.708,0.0
55946.0,STARLINK-5857,PAYLOAD,2023-03-22 22:00:00,15.94783038,0.0038457,70.0,167.26,163.0789,176.0029,-0.0024887,-0.01029349,0.00032799,0 STARLINK-5857,1 55946U 23037AJ  23081.91667824 -.01029349  32799-3 -24887-2 0  9995,2 55946  70.0000 167.2600 0038457 163.0789 176.0029 15.94783038  1308,6667.056,90.294,314.56,263.281,0.0
55946.0,STARLINK-5857,PAYLOAD,2023-03-23 01:05:59,15.94778848,0.003815,69.9974,166.882,161.1649,199.0981,-0.00065109,-0.00270861,2.8993e-05,0 STARLINK-5857,1 55946U 23037AJ  23082.04583042 -.00270861  28993-4 -65109-3 0  9990,2 55946  69.9974 166.8820 0038150 161.1649 199.0981 15.94778848  1347,6667.068,90.295,314.368,263.498,0.0
55946.0,STARLINK-5857,PAYLOAD,2023-03-23 14:00:01,15.93458682,0.0029995,70.0,165.3175,164.5346,39.3038,-0.0026405,-0.00987664,0.00029975,0 STARLINK-5857,1 55946U 23037AJ  23082.58335648 -.00987664  29975-3 -26405-2 0  9997,2 55946  70.0000 165.3175 0029995 164.5346  39.3038 15.93458682  1434,6670.75,90.369,312.623,272.606,0.0
55946.0,STARLINK-5857,PAYLOAD,2023-03-24 17:00:11,15.9124872,0.0018274,69.9999,162.0475,174.0529,357.4432,-0.002996,-0.00971383,0.00028426,0 STARLINK-5857,1 55946U 23037AJ  23083.70846065 -.00971383  28426-3 -29960-2 0  9992,2 55946  69.9999 162.0475 0018274 174.0529 357.4432 15.91248720  1601,6676.924,90.495,310.991,286.588,0.0
55946.0,STARLINK-5857,PAYLOAD,2023-03-24 22:00:01,15.9088287,0.0015719,69.9998,161.4432,177.9436,105.8622,-0.0033246,-0.01052975,0.00032879,0 STARLINK-5857,1 55946U 23037AJ  23083.91668981 -.01052975  32879-3 -33246-2 0  9991,2 55946  69.9998 161.4432 0015719 177.9436 105.8622 15.90882870  1308,6677.948,90.516,310.31,289.316,0.0
55946.0,STARLINK-5857,PAYLOAD,2023-03-25 06:00:00,15.90213641,0.0012449,70.0001,160.4773,186.5112,205.274,-0.0033473,-0.01020573,0.00030829,0 STARLINK-5857,1 55946U 23037AJ  23084.25001157 -.01020573  30829-3 -33473-2 0  9999,2 55946  70.0001 160.4773 0012449 186.5112 205.2740 15.90213641  1699,6679.822,90.554,310.002,293.371,0.0
55946.0,STARLINK-5857,PAYLOAD,2023-03-25 14:00:01,15.89539358,0.0010606,70.0001,159.5125,196.6211,302.4292,-0.003321,-0.00977105,0.00028257,0 STARLINK-5857,1 55946U 23037AJ  23084.58334491 -.00977105  28257-3 -33210-2 0  9997,2 55946  70.0001 159.5125 0010606 196.6211 302.4292 15.89539358  1746,6681.71,90.592,310.662,296.489,0.0
55946.0,STARLINK-5857,PAYLOAD,2023-03-25 22:00:00,15.88910623,0.0008734,70.0,158.5474,215.0923,30.4245,-0.0035998,-0.010243,0.00030647,0 STARLINK-5857,1 55946U 23037AJ  23084.91667824 -.01024300  30647-3 -35998-2 0  9995,2 55946  70.0000 158.5474 0008734 215.0923  30.4245 15.88910623  1794,6683.473,90.628,311.175,299.501,0.0
55946.0,STARLINK-5857,PAYLOAD,2023-03-26 06:00:00,15.88266144,0.0008462,69.9999,157.5847,236.6878,114.5185,-0.0037785,-0.01040908,0.00031377,0 STARLINK-5857,1 55946U 23037AJ  23085.25001157 -.01040908  31377-3 -37785-2 0  9993,2 55946  69.9999 157.5847 0008462 236.6878 114.5185 15.88266144  1853,6685.281,90.665,312.803,301.489,0.0
55946.0,STARLINK-5857,PAYLOAD,2023-03-26 22:00:01,15.86937774,0.0009122,69.9998,155.6607,266.731,293.5886,-0.0038543,-0.00904813,0.0,0 STARLINK-5857,1 55946U 23037AJ  23085.91668981 -.00904813  00000-0 -38543-2 0  9992,2 55946  69.9998 155.6607 0009122 266.7310 293.5886 15.86937774  1953,6689.011,90.741,316.978,304.774,0.0
55946.0,STARLINK-5857,PAYLOAD,2023-03-27 14:00:01,15.85646979,0.0007172,70.0,153.7404,271.8265,134.3299,-0.0042128,-0.00924381,0.0,0 STARLINK-5857,1 55946U 23037AJ  23086.58334491 -.00924381  00000-0 -42128-2 0  9998,2 55946  70.0000 153.7404 0007172 271.8265 134.3299 15.85646979  1305,6692.641,90.815,319.306,309.706,0.0
55946.0,STARLINK-5857,PAYLOAD,2023-03-27 22:00:00,15.84987717,0.0003587,70.0001,152.7814,273.0966,234.8433,-0.0042961,-0.00911684,0.0,0 STARLINK-5857,1 55946U 23037AJ  23086.91667824 -.00911684  00000-0 -42961-2 0  9991,2 55946  70.0001 152.7814 0003587 273.0966 234.8433 15.84987717  2111,6694.496,90.852,318.763,313.96,0.0
55946.0,STARLINK-5857,PAYLOAD,2023-03-28 14:00:01,15.83681335,0.000368,70.0002,150.867,268.8493,80.3065,-0.0045562,-0.00908526,0.0,0 STARLINK-5857,1 55946U 23037AJ  23087.58334491 -.00908526  00000-0 -45562-2 0  9997,2 55946  70.0002 150.8670 0003680 268.8493  80.3065 15.83681335  1303,6698.177,90.927,322.507,317.577,0.0
55946.0,STARLINK-5857,PAYLOAD,2023-03-28 22:00:00,15.8303723,0.0003629,69.9997,149.9104,278.6497,169.9373,-0.0047658,-0.00920392,0.0,0 STARLINK-5857,1 55946U 23037AJ  23087.91667824 -.00920392  00000-0 -47658-2 0  9996,2 55946  69.9997 149.9104 0003629 278.6497 169.9373 15.83037230  1305,6699.994,90.964,324.291,319.428,0.0
55946.0,STARLINK-5857,PAYLOAD,2023-03-29 00:00:00,15.82863648,0.0003521,70.0001,149.6721,276.0841,287.2434,-0.0047171,-0.00905084,0.0,0 STARLINK-5857,1 55946U 23037AJ  23088.00001157 -.00905084  00000-0 -47171-2 0  9999,2 55946  70.0001 149.6721 0003521 276.0841 287.2434 15.82863648  2281,6700.484,90.974,324.708,319.99,0.0
55946.0,STARLINK-5857,PAYLOAD,2023-03-29 14:00:01,15.81721806,0.0003561,70.0,148.0019,269.1668,15.9459,-0.004971,-0.00904115,0.0,0 STARLINK-5857,1 55946U 23037AJ  23088.58334491 -.00904115  00000-0 -49710-2 0  9997,2 55946  70.0000 148.0019 0003561 269.1668  15.9459 15.81721806  1300,6703.708,91.04,327.96,323.186,0.0
55946.0,STARLINK-5857,PAYLOAD,2023-03-29 22:00:00,15.81071647,0.0003764,70.0,147.0486,279.6609,102.538,-0.0051408,-0.0090694,0.0,0 STARLINK-5857,1 55946U 23037AJ  23088.91667824 -.00906940  00000-0 -51408-2 0  9998,2 55946  70.0000 147.0486 0003764 279.6609 102.5380 15.81071647  2435,6705.546,91.077,329.935,324.887,0.0
55946.0,STARLINK-5857,PAYLOAD,2023-03-30 22:00:00,15.7911567,0.00036,70.0001,144.1941,271.9404,36.8269,-0.0056352,-0.00908454,0.0,0 STARLINK-5857,1 55946U 23037AJ  23089.91667824 -.00908454  00000-0 -56352-2 0  9994,2 55946  70.0001 144.1941 0003600 271.9404  36.8269 15.79115670  1309,6711.082,91.19,335.363,330.531,0.0
55946.0,STARLINK-5857,PAYLOAD,2023-03-31 22:00:00,15.77150513,0.0003619,70.0002,141.3482,281.7734,306.5248,-0.0060619,-0.00895766,0.0,0 STARLINK-5857,1 55946U 23037AJ  23090.91667824 -.00895766  00000-0 -60619-2 0  9998,2 55946  70.0002 141.3482 0003619 281.7734 306.5248 15.77150513  2740,6716.656,91.304,340.951,336.09,0.0
55946.0,STARLINK-5857,PAYLOAD,2023-04-01 14:00:01,15.75849056,0.0003638,69.9999,139.4556,275.5161,135.2209,-0.0064456,-0.00898721,0.0,0 STARLINK-5857,1 55946U 23037AJ  23091.58334491 -.00898721  00000-0 -64456-2 0  9990,2 55946  69.9999 139.4556 0003638 275.5161 135.2209 15.75849056  2859,6720.353,91.379,344.663,339.773,0.0
55946.0,STARLINK-5857,PAYLOAD,2023-04-01 22:00:00,15.75199313,0.0003569,70.0002,138.5106,282.1644,218.618,-0.0066592,-0.00901972,0.0,0 STARLINK-5857,1 55946U 23037AJ  23091.91667824 -.00901972  00000-0 -66592-2 0  9992,2 55946  70.0002 138.5106 0003569 282.1644 218.6180 15.75199313  1308,6722.201,91.417,346.465,341.667,0.0
55946.0,STARLINK-5857,PAYLOAD,2023-04-02 14:00:01,15.73895162,0.0003649,70.0,136.6237,276.0447,42.4839,-0.0070462,-0.0090175,0.0,0 STARLINK-5857,1 55946U 23037AJ  23092.58334491 -.00901750  00000-0 -70462-2 0  9992,2 55946  70.0000 136.6237 0003649 276.0447  42.4839 15.73895162  3019,6725.914,91.493,350.233,345.325,0.0
55946.0,STARLINK-5857,PAYLOAD,2023-04-02 22:00:00,15.7323784,0.0003798,70.0003,135.6812,285.5299,120.701,-0.0071878,-0.00894949,0.0,0 STARLINK-5857,1 55946U 23037AJ  23092.91667824 -.00894949  00000-0 -71878-2 0  9991,2 55946  70.0003 135.6812 0003798 285.5299 120.7010 15.73237840  1309,6727.787,91.531,352.208,347.097,0.0
55946.0,STARLINK-5857,PAYLOAD,2023-04-03 14:00:01,15.71941395,0.0003504,69.9997,133.7998,277.912,301.3685,-0.007707,-0.00906415,0.0,0 STARLINK-5857,1 55946U 23037AJ  23093.58334491 -.00906415  00000-0 -77070-2 0  9998,2 55946  69.9997 133.7998 0003504 277.9120 301.3685 15.71941395  3161,6731.486,91.606,355.71,350.992,0.0
55946.0,STARLINK-5857,PAYLOAD,2023-04-03 22:00:00,15.71284835,0.0003685,70.0,132.8597,282.7547,21.8816,-0.0078781,-0.00901705,0.0,0 STARLINK-5857,1 55946U 23037AJ  23093.91667824 -.00901705  00000-0 -78781-2 0  9991,2 55946  70.0000 132.8597 0003685 282.7547  21.8816 15.71284835  1304,6733.361,91.645,357.707,352.745,0.0
55946.0,STARLINK-5857,PAYLOAD,2023-04-04 14:00:01,15.6993357,0.000358,70.0,130.9839,280.7622,192.2182,-0.00015676,-0.00019028,0.0,0 STARLINK-5857,1 55946U 23037AJ  23094.58334491 -.00019028  00000-0 -15676-3 0  9999,2 55946  70.0000 130.9839 0003580 280.7622 192.2182 15.69933570  1301,6737.224,91.724,361.501,356.677,0.0
55946.0,STARLINK-5857,PAYLOAD,2023-04-04 22:00:00,15.6987578,0.0003249,69.9962,130.039,271.3624,284.9842,0.00073676,0.00089143,0.0,0 STARLINK-5857,1 55946U 23037AJ  23094.91667824  .00089143  00000-0  73676-3 0  9992,2 55946  69.9962 130.0390 0003249 271.3624 284.9842 15.69875780  1308,6737.389,91.727,361.443,357.065,0.0
55946.0,STARLINK-5857,PAYLOAD,2023-04-05 14:00:01,15.6992804,0.0003165,69.9993,128.1644,285.7807,77.2387,-0.0001749,-0.00021192,0.0,0 STARLINK-5857,1 55946U 23037AJ  23095.58334491 -.00021192  00000-0 -17490-3 0  9991,2 55946  69.9993 128.1644 0003165 285.7807  77.2387 15.69928040  3487,6737.24,91.724,361.237,356.973,0.0
